STARLINK-6373           
1 57345U 23099T   26068.52643903 -.00000061  00000+0  10593-4 0  9990
2 57345  43.0023 249.7183 0001340 262.3413  97.7277 15.02535507146093
ION SCV-014             
1 62630U 25009X   26068.71776957  .00001812  00000+0  13229-3 0  9995
2 62630  97.4923 144.8636 0006450 112.6479 247.5430 15.04884649 63025
