[{"OBJECT_NAME":"STARLINK-6373","OBJECT_ID":"2023-099T","EPOCH":"2026-03-09T12:38:04.332192","MEAN_MOTION":15.02535507,"ECCENTRICITY":0.00013409,"INCLINATION":43.0023,"RA_OF_ASC_NODE":249.7183,"ARG_OF_PERICENTER":262.3413,"MEAN_ANOMALY":97.7277,"EPHEMERIS_TYPE":0,"CLASSIFICATION_TYPE":"U","NORAD_CAT_ID":57345,"ELEMENT_SET_NO":999,"REV_AT_EPOCH":14609,"BSTAR":1.059264e-5,"MEAN_MOTION_DOT":-6.1e-7,"MEAN_MOTION_DDOT":0},{"OBJECT_NAME":"ION SCV-014","OBJECT_ID":"2025-009X","EPOCH":"2026-03-09T17:13:35.291712","MEAN_MOTION":15.0488465,"ECCENTRICITY":0.00064503,"INCLINATION":97.4923,"RA_OF_ASC_NODE":144.8636,"ARG_OF_PERICENTER":112.6479,"MEAN_ANOMALY":247.543,"EPHEMERIS_TYPE":0,"CLASSIFICATION_TYPE":"U","NORAD_CAT_ID":62630,"ELEMENT_SET_NO":999,"REV_AT_EPOCH":6302,"BSTAR":0.0001322874,"MEAN_MOTION_DOT":1.812e-5,"MEAN_MOTION_DDOT":0}]
